SAPPHIRE                
1 39088U 13009C   26091.40522282  .00000149  00000+0  67143-4 0  9992
2 39088  98.4240 272.6888 0012258 115.4721 244.7734 14.35218156685564
PRAETORIAN SDA_602      
1 65565U 25203A   26091.05002258  .00000178  00000+0  14889-3 0  9997
2 65565  81.2995  82.2190 0006926  49.6534 310.5227 13.84333564 28021
PRAETORIAN SDA_603      
1 65566U 25203B   26091.41386505  .00000270  00000+0  23310-3 0  9990
2 65566  81.2997  81.7432 0010481  45.9752 314.2266 13.83895631 28086
PRAETORIAN SDA_604      
1 65567U 25203C   26091.38590493  .00000067  00000+0  50842-4 0  9995
2 65567  81.3019  82.0637 0006601  55.4554 304.7224 13.83037083 28064
PRAETORIAN SDA_605      
1 65568U 25203D   26091.37288391  .00000078  00000+0  59533-4 0  9994
2 65568  81.2983  81.8140 0009166  42.8008 317.3860 13.83531798 28072
PRAETORIAN SDA_606      
1 65569U 25203E   26091.43075790  .00000076  00000+0  57795-4 0  9995
2 65569  81.3018  81.9590 0006827  46.9079 313.2647 13.83531120 28074
PRAETORIAN SDA_607      
1 65570U 25203F   26089.24333351 -.00018822  00000+0 -16924-1 0  9999
2 65570  81.3046  83.7579 0012027  38.8271 321.3748 13.84227839 27786
PRAETORIAN SDA_608      
1 65571U 25203G   26091.36302844  .00000075  00000+0  56760-4 0  9993
2 65571  81.2971  81.9266 0007042  54.3633 305.8178 13.83889765 28069
PRAETORIAN SDA_609      
1 65572U 25203H   26091.39349283  .00000242  00000+0  20584-3 0  9995
2 65572  81.3017  81.9015 0007922  47.1560 313.0261 13.84300205 28073
PRAETORIAN SDA_610      
1 65573U 25203J   26091.41855121  .00000070  00000+0  52018-4 0  9999
2 65573  81.2973  81.8399 0007531  50.4769 309.7052 13.83912737 28070
PRAETORIAN SDA_611      
1 65574U 25203K   26091.38664331 -.00000013  00000+0 -22991-4 0  9993
2 65574  81.2966  81.9658 0006793  57.8041 302.3773 13.83299340 28061
PRAETORIAN SDA_612      
1 65575U 25203L   26091.39982260  .00000266  00000+0  22482-3 0  9991
2 65575  81.2991  81.7288 0010241  45.6594 314.5400 13.85028328 28080
PRAETORIAN SDA_613      
1 65576U 25203M   26091.36985850  .00000073  00000+0  55656-4 0  9993
2 65576  81.2963  81.9331 0006756  51.9928 308.1837 13.82944576 28068
PRAETORIAN SDA_614      
1 65577U 25203N   26091.37460012  .00000078  00000+0  58802-4 0  9994
2 65577  81.2978  81.8107 0008109  46.3227 313.8601 13.84768514 28081
PRAETORIAN SDA_615      
1 65578U 25203P   26091.40476433  .00000266  00000+0  22690-3 0  9997
2 65578  81.2988  81.6980 0010032  44.6160 315.5802 13.84425141 28083
PRAETORIAN SDA_616      
1 65579U 25203Q   26091.38565051  .00000298  00000+0  26043-3 0  9991
2 65579  81.3027  82.0654 0006515  56.8752 303.3028 13.83314631 28068
PRAETORIAN SDA_617      
1 65580U 25203R   26091.40044512  .00000078  00000+0  60748-4 0  9997
2 65580  81.3001  81.8896 0008446  46.3897 313.7959 13.83194429 28076
