[{"OBJECT_NAME":"SAPPHIRE","OBJECT_ID":"2013-009C","EPOCH":"2026-04-01T09:43:31.251648","MEAN_MOTION":14.35218156,"ECCENTRICITY":0.0012258,"INCLINATION":98.424,"RA_OF_ASC_NODE":272.6888,"ARG_OF_PERICENTER":115.4721,"MEAN_ANOMALY":244.7734,"EPHEMERIS_TYPE":0,"CLASSIFICATION_TYPE":"U","NORAD_CAT_ID":39088,"ELEMENT_SET_NO":999,"REV_AT_EPOCH":68556,"BSTAR":6.7143e-5,"MEAN_MOTION_DOT":1.49e-6,"MEAN_MOTION_DDOT":0},{"OBJECT_NAME":"PRAETORIAN SDA_602","OBJECT_ID":"2025-203A","EPOCH":"2026-04-01T01:12:01.950912","MEAN_MOTION":13.84333564,"ECCENTRICITY":0.0006926,"INCLINATION":81.2995,"RA_OF_ASC_NODE":82.219,"ARG_OF_PERICENTER":49.6534,"MEAN_ANOMALY":310.5227,"EPHEMERIS_TYPE":0,"CLASSIFICATION_TYPE":"U","NORAD_CAT_ID":65565,"ELEMENT_SET_NO":999,"REV_AT_EPOCH":2802,"BSTAR":0.00014889,"MEAN_MOTION_DOT":1.78e-6,"MEAN_MOTION_DDOT":0},{"OBJECT_NAME":"PRAETORIAN SDA_603","OBJECT_ID":"2025-203B","EPOCH":"2026-04-01T09:55:57.940320","MEAN_MOTION":13.83895631,"ECCENTRICITY":0.0010481,"INCLINATION":81.2997,"RA_OF_ASC_NODE":81.7432,"ARG_OF_PERICENTER":45.9752,"MEAN_ANOMALY":314.2266,"EPHEMERIS_TYPE":0,"CLASSIFICATION_TYPE":"U","NORAD_CAT_ID":65566,"ELEMENT_SET_NO":999,"REV_AT_EPOCH":2808,"BSTAR":0.0002331,"MEAN_MOTION_DOT":2.7e-6,"MEAN_MOTION_DDOT":0},{"OBJECT_NAME":"PRAETORIAN SDA_604","OBJECT_ID":"2025-203C","EPOCH":"2026-04-01T09:15:42.185952","MEAN_MOTION":13.83037083,"ECCENTRICITY":0.0006601,"INCLINATION":81.3019,"RA_OF_ASC_NODE":82.0637,"ARG_OF_PERICENTER":55.4554,"MEAN_ANOMALY":304.7224,"EPHEMERIS_TYPE":0,"CLASSIFICATION_TYPE":"U","NORAD_CAT_ID":65567,"ELEMENT_SET_NO":999,"REV_AT_EPOCH":2806,"BSTAR":5.0842e-5,"MEAN_MOTION_DOT":6.7e-7,"MEAN_MOTION_DDOT":0},{"OBJECT_NAME":"PRAETORIAN SDA_605","OBJECT_ID":"2025-203D","EPOCH":"2026-04-01T08:56:57.169824","MEAN_MOTION":13.83531798,"ECCENTRICITY":0.0009166,"INCLINATION":81.2983,"RA_OF_ASC_NODE":81.814,"ARG_OF_PERICENTER":42.8008,"MEAN_ANOMALY":317.386,"EPHEMERIS_TYPE":0,"CLASSIFICATION_TYPE":"U","NORAD_CAT_ID":65568,"ELEMENT_SET_NO":999,"REV_AT_EPOCH":2807,"BSTAR":5.9533e-5,"MEAN_MOTION_DOT":7.8e-7,"MEAN_MOTION_DDOT":0},{"OBJECT_NAME":"PRAETORIAN SDA_606","OBJECT_ID":"2025-203E","EPOCH":"2026-04-01T10:20:17.482560","MEAN_MOTION":13.8353112,"ECCENTRICITY":0.0006827,"INCLINATION":81.3018,"RA_OF_ASC_NODE":81.959,"ARG_OF_PERICENTER":46.9079,"MEAN_ANOMALY":313.2647,"EPHEMERIS_TYPE":0,"CLASSIFICATION_TYPE":"U","NORAD_CAT_ID":65569,"ELEMENT_SET_NO":999,"REV_AT_EPOCH":2807,"BSTAR":5.7795e-5,"MEAN_MOTION_DOT":7.6e-7,"MEAN_MOTION_DDOT":0},{"OBJECT_NAME":"PRAETORIAN SDA_607","OBJECT_ID":"2025-203F","EPOCH":"2026-03-30T05:50:24.015264","MEAN_MOTION":13.84227839,"ECCENTRICITY":0.0012027,"INCLINATION":81.3046,"RA_OF_ASC_NODE":83.7579,"ARG_OF_PERICENTER":38.8271,"MEAN_ANOMALY":321.3748,"EPHEMERIS_TYPE":0,"CLASSIFICATION_TYPE":"U","NORAD_CAT_ID":65570,"ELEMENT_SET_NO":999,"REV_AT_EPOCH":2778,"BSTAR":-0.016924,"MEAN_MOTION_DOT":-0.00018822,"MEAN_MOTION_DDOT":0},{"OBJECT_NAME":"PRAETORIAN SDA_608","OBJECT_ID":"2025-203G","EPOCH":"2026-04-01T08:42:45.657216","MEAN_MOTION":13.83889765,"ECCENTRICITY":0.0007042,"INCLINATION":81.2971,"RA_OF_ASC_NODE":81.9266,"ARG_OF_PERICENTER":54.3633,"MEAN_ANOMALY":305.8178,"EPHEMERIS_TYPE":0,"CLASSIFICATION_TYPE":"U","NORAD_CAT_ID":65571,"ELEMENT_SET_NO":999,"REV_AT_EPOCH":2806,"BSTAR":5.676e-5,"MEAN_MOTION_DOT":7.5e-7,"MEAN_MOTION_DDOT":0},{"OBJECT_NAME":"PRAETORIAN SDA_609","OBJECT_ID":"2025-203H","EPOCH":"2026-04-01T09:26:37.780512","MEAN_MOTION":13.84300205,"ECCENTRICITY":0.0007922,"INCLINATION":81.3017,"RA_OF_ASC_NODE":81.9015,"ARG_OF_PERICENTER":47.156,"MEAN_ANOMALY":313.0261,"EPHEMERIS_TYPE":0,"CLASSIFICATION_TYPE":"U","NORAD_CAT_ID":65572,"ELEMENT_SET_NO":999,"REV_AT_EPOCH":2807,"BSTAR":0.00020584,"MEAN_MOTION_DOT":2.42e-6,"MEAN_MOTION_DDOT":0},{"OBJECT_NAME":"PRAETORIAN SDA_610","OBJECT_ID":"2025-203J","EPOCH":"2026-04-01T10:02:42.824544","MEAN_MOTION":13.83912737,"ECCENTRICITY":0.0007531,"INCLINATION":81.2973,"RA_OF_ASC_NODE":81.8399,"ARG_OF_PERICENTER":50.4769,"MEAN_ANOMALY":309.7052,"EPHEMERIS_TYPE":0,"CLASSIFICATION_TYPE":"U","NORAD_CAT_ID":65573,"ELEMENT_SET_NO":999,"REV_AT_EPOCH":2807,"BSTAR":5.2018e-5,"MEAN_MOTION_DOT":7.0e-7,"MEAN_MOTION_DDOT":0},{"OBJECT_NAME":"PRAETORIAN SDA_611","OBJECT_ID":"2025-203K","EPOCH":"2026-04-01T09:16:45.981984","MEAN_MOTION":13.8329934,"ECCENTRICITY":0.0006793,"INCLINATION":81.2966,"RA_OF_ASC_NODE":81.9658,"ARG_OF_PERICENTER":57.8041,"MEAN_ANOMALY":302.3773,"EPHEMERIS_TYPE":0,"CLASSIFICATION_TYPE":"U","NORAD_CAT_ID":65574,"ELEMENT_SET_NO":999,"REV_AT_EPOCH":2806,"BSTAR":-2.2991e-5,"MEAN_MOTION_DOT":-1.3e-7,"MEAN_MOTION_DDOT":0},{"OBJECT_NAME":"PRAETORIAN SDA_612","OBJECT_ID":"2025-203L","EPOCH":"2026-04-01T09:35:44.672640","MEAN_MOTION":13.85028328,"ECCENTRICITY":0.0010241,"INCLINATION":81.2991,"RA_OF_ASC_NODE":81.7288,"ARG_OF_PERICENTER":45.6594,"MEAN_ANOMALY":314.54,"EPHEMERIS_TYPE":0,"CLASSIFICATION_TYPE":"U","NORAD_CAT_ID":65575,"ELEMENT_SET_NO":999,"REV_AT_EPOCH":2808,"BSTAR":0.00022482,"MEAN_MOTION_DOT":2.66e-6,"MEAN_MOTION_DDOT":0},{"OBJECT_NAME":"PRAETORIAN SDA_613","OBJECT_ID":"2025-203M","EPOCH":"2026-04-01T08:52:35.774400","MEAN_MOTION":13.82944576,"ECCENTRICITY":0.0006756,"INCLINATION":81.2963,"RA_OF_ASC_NODE":81.9331,"ARG_OF_PERICENTER":51.9928,"MEAN_ANOMALY":308.1837,"EPHEMERIS_TYPE":0,"CLASSIFICATION_TYPE":"U","NORAD_CAT_ID":65576,"ELEMENT_SET_NO":999,"REV_AT_EPOCH":2806,"BSTAR":5.5656e-5,"MEAN_MOTION_DOT":7.3e-7,"MEAN_MOTION_DDOT":0},{"OBJECT_NAME":"PRAETORIAN SDA_614","OBJECT_ID":"2025-203N","EPOCH":"2026-04-01T08:59:25.450368","MEAN_MOTION":13.84768514,"ECCENTRICITY":0.0008109,"INCLINATION":81.2978,"RA_OF_ASC_NODE":81.8107,"ARG_OF_PERICENTER":46.3227,"MEAN_ANOMALY":313.8601,"EPHEMERIS_TYPE":0,"CLASSIFICATION_TYPE":"U","NORAD_CAT_ID":65577,"ELEMENT_SET_NO":999,"REV_AT_EPOCH":2808,"BSTAR":5.8802e-5,"MEAN_MOTION_DOT":7.8e-7,"MEAN_MOTION_DDOT":0},{"OBJECT_NAME":"PRAETORIAN SDA_615","OBJECT_ID":"2025-203P","EPOCH":"2026-04-01T09:42:51.638112","MEAN_MOTION":13.84425141,"ECCENTRICITY":0.0010032,"INCLINATION":81.2988,"RA_OF_ASC_NODE":81.698,"ARG_OF_PERICENTER":44.616,"MEAN_ANOMALY":315.5802,"EPHEMERIS_TYPE":0,"CLASSIFICATION_TYPE":"U","NORAD_CAT_ID":65578,"ELEMENT_SET_NO":999,"REV_AT_EPOCH":2808,"BSTAR":0.0002269,"MEAN_MOTION_DOT":2.66e-6,"MEAN_MOTION_DDOT":0},{"OBJECT_NAME":"PRAETORIAN SDA_616","OBJECT_ID":"2025-203Q","EPOCH":"2026-04-01T09:15:20.204064","MEAN_MOTION":13.83314631,"ECCENTRICITY":0.0006515,"INCLINATION":81.3027,"RA_OF_ASC_NODE":82.0654,"ARG_OF_PERICENTER":56.8752,"MEAN_ANOMALY":303.3028,"EPHEMERIS_TYPE":0,"CLASSIFICATION_TYPE":"U","NORAD_CAT_ID":65579,"ELEMENT_SET_NO":999,"REV_AT_EPOCH":2806,"BSTAR":0.00026043,"MEAN_MOTION_DOT":2.98e-6,"MEAN_MOTION_DDOT":0},{"OBJECT_NAME":"PRAETORIAN SDA_617","OBJECT_ID":"2025-203R","EPOCH":"2026-04-01T09:36:38.458368","MEAN_MOTION":13.83194429,"ECCENTRICITY":0.0008446,"INCLINATION":81.3001,"RA_OF_ASC_NODE":81.8896,"ARG_OF_PERICENTER":46.3897,"MEAN_ANOMALY":313.7959,"EPHEMERIS_TYPE":0,"CLASSIFICATION_TYPE":"U","NORAD_CAT_ID":65580,"ELEMENT_SET_NO":999,"REV_AT_EPOCH":2807,"BSTAR":6.0748e-5,"MEAN_MOTION_DOT":7.8e-7,"MEAN_MOTION_DDOT":0}]
